{
  "norad_id": 59466,
  "name": "STARLINK-31462",
  "history": [
    {
      "epoch": "2026-04-16T14:44:14.218080Z",
      "apogee_km": 484.1992668743469,
      "perigee_km": 481.7635698358308,
      "latitude_deg": 1.401598423622819e-05,
      "longitude_deg": 114.4275353084422,
      "height_km": 482.66541265588404,
      "semi_major_axis_km": 6861.118418355089,
      "eccentricity": 0.0001775,
      "inclination_deg": 43.0009,
      "raan_deg": 180.246,
      "arg_perigee_deg": 274.385,
      "mean_anomaly_deg": 85.6799,
      "mean_motion_rev_day": 15.27602602
    },
    {
      "epoch": "2026-04-17T12:42:27.989568Z",
      "apogee_km": 484.15322928965907,
      "perigee_km": 481.99290868733806,
      "latitude_deg": 2.233826271604155e-06,
      "longitude_deg": 138.79954683825358,
      "height_km": 482.7506313620691,
      "semi_major_axis_km": 6861.210068988498,
      "eccentricity": 0.00015743,
      "inclination_deg": 43.0018,
      "raan_deg": 175.0777,
      "arg_perigee_deg": 275.2849,
      "mean_anomaly_deg": 84.7823,
      "mean_motion_rev_day": 15.27571994
    },
    {
      "epoch": "2026-04-18T15:23:06.491040Z",
      "apogee_km": 484.1334765435895,
      "perigee_km": 481.9036009934889,
      "latitude_deg": -8.859203496414145e-06,
      "longitude_deg": 91.26451244071883,
      "height_km": 482.6959572469112,
      "semi_major_axis_km": 6861.1555387685385,
      "eccentricity": 0.0001625,
      "inclination_deg": 43.001,
      "raan_deg": 168.7987,
      "arg_perigee_deg": 275.1245,
      "mean_anomaly_deg": 84.9421,
      "mean_motion_rev_day": 15.27590205
    },
    {
      "epoch": "2026-04-19T14:55:26.910336Z",
      "apogee_km": 484.0499733556835,
      "perigee_km": 481.9381172199446,
      "latitude_deg": 4.243887845153008e-05,
      "longitude_deg": 91.67437336284674,
      "height_km": 482.7274447043446,
      "semi_major_axis_km": 6861.131045287814,
      "eccentricity": 0.0001539,
      "inclination_deg": 42.9997,
      "raan_deg": 163.2603,
      "arg_perigee_deg": 272.3546,
      "mean_anomaly_deg": 87.713,
      "mean_motion_rev_day": 15.27598385
    },
    {
      "epoch": "2026-04-20T09:45:20.632320Z",
      "apogee_km": 483.461084554905,
      "perigee_km": 482.6658714195073,
      "latitude_deg": -5.162654769905906e-06,
      "longitude_deg": 163.99259372571186,
      "height_km": 483.23468000119703,
      "semi_major_axis_km": 6861.200477987206,
      "eccentricity": 5.795e-05,
      "inclination_deg": 42.9967,
      "raan_deg": 158.8258,
      "arg_perigee_deg": 175.2923,
      "mean_anomaly_deg": 184.7934,
      "mean_motion_rev_day": 15.27575197
    },
    {
      "epoch": "2026-04-21T14:00:08.860896Z",
      "apogee_km": 483.80066748162244,
      "perigee_km": 482.167720637437,
      "latitude_deg": 6.214081797377241e-06,
      "longitude_deg": 92.48639863206508,
      "height_km": 482.920830679263,
      "semi_major_axis_km": 6861.121194059529,
      "eccentricity": 0.000119,
      "inclination_deg": 42.9991,
      "raan_deg": 152.1806,
      "arg_perigee_deg": 258.6805,
      "mean_anomaly_deg": 101.3913,
      "mean_motion_rev_day": 15.27601675
    },
    {
      "epoch": "2026-04-22T13:32:29.009760Z",
      "apogee_km": 483.47232746753525,
      "perigee_km": 482.6105634547848,
      "latitude_deg": -3.0009476953287293e-05,
      "longitude_deg": 92.89719442318402,
      "height_km": 482.8821731385152,
      "semi_major_axis_km": 6861.17844546116,
      "eccentricity": 6.28e-05,
      "inclination_deg": 42.9981,
      "raan_deg": 146.6421,
      "arg_perigee_deg": 261.333,
      "mean_anomaly_deg": 98.745,
      "mean_motion_rev_day": 15.27582555
    },
    {
      "epoch": "2026-04-23T02:05:45.011328Z",
      "apogee_km": 483.2928066242157,
      "perigee_km": 482.85958962288623,
      "latitude_deg": 8.825704797393549e-06,
      "longitude_deg": -98.8868313022411,
      "height_km": 482.98566495776635,
      "semi_major_axis_km": 6861.213198123551,
      "eccentricity": 3.157e-05,
      "inclination_deg": 42.9958,
      "raan_deg": 143.6903,
      "arg_perigee_deg": 128.4866,
      "mean_anomaly_deg": 231.6014,
      "mean_motion_rev_day": 15.27570949
    },
    {
      "epoch": "2026-04-24T11:03:03.323232Z",
      "apogee_km": 484.06560979609094,
      "perigee_km": 482.1101607037954,
      "latitude_deg": -6.128561063999778e-05,
      "longitude_deg": 117.6771749743941,
      "height_km": 483.13839891820635,
      "semi_major_axis_km": 6861.224885249943,
      "eccentricity": 0.0001425,
      "inclination_deg": 43.0005,
      "raan_deg": 135.9341,
      "arg_perigee_deg": 253.7367,
      "mean_anomaly_deg": 106.3327,
      "mean_motion_rev_day": 15.27567046
    },
    {
      "epoch": "2026-04-25T09:01:14.380032Z",
      "apogee_km": 484.1394928931122,
      "perigee_km": 481.8835472597111,
      "latitude_deg": -4.269727507536014e-05,
      "longitude_deg": 142.05995921117102,
      "height_km": 482.85996730795017,
      "semi_major_axis_km": 6861.148520076411,
      "eccentricity": 0.0001644,
      "inclination_deg": 43.0012,
      "raan_deg": 130.7652,
      "arg_perigee_deg": 266.3696,
      "mean_anomaly_deg": 93.6967,
      "mean_motion_rev_day": 15.27592549
    },
    {
      "epoch": "2026-04-26T06:59:25.338336Z",
      "apogee_km": 484.11779953952373,
      "perigee_km": 481.91125320864285,
      "latitude_deg": 1.126347145832402e-05,
      "longitude_deg": 166.4425933249239,
      "height_km": 482.86913761076505,
      "semi_major_axis_km": 6861.151526374083,
      "eccentricity": 0.0001608,
      "inclination_deg": 43.0018,
      "raan_deg": 125.5957,
      "arg_perigee_deg": 265.969,
      "mean_anomaly_deg": 94.0978,
      "mean_motion_rev_day": 15.27591545
    },
    {
      "epoch": "2026-04-27T11:14:14.201088Z",
      "apogee_km": 483.99501812753624,
      "perigee_km": 482.08486646680103,
      "latitude_deg": -2.7975821745849083e-05,
      "longitude_deg": 94.93059823708208,
      "height_km": 482.9375653090127,
      "semi_major_axis_km": 6861.176942297168,
      "eccentricity": 0.0001392,
      "inclination_deg": 43.0011,
      "raan_deg": 118.9474,
      "arg_perigee_deg": 262.7319,
      "mean_anomaly_deg": 97.3374,
      "mean_motion_rev_day": 15.27583057
    },
    {
      "epoch": "2026-04-28T06:04:07.065120Z",
      "apogee_km": 483.9096193272262,
      "perigee_km": 482.2066706922342,
      "latitude_deg": -2.9381151886873705e-06,
      "longitude_deg": 167.2544826437928,
      "height_km": 483.1976754148859,
      "semi_major_axis_km": 6861.1951450097295,
      "eccentricity": 0.0001241,
      "inclination_deg": 43.0007,
      "raan_deg": 114.5149,
      "arg_perigee_deg": 244.7631,
      "mean_anomaly_deg": 115.3092,
      "mean_motion_rev_day": 15.27576978
    },
    {
      "epoch": "2026-04-29T10:18:56.051424Z",
      "apogee_km": 483.8537710848632,
      "perigee_km": 482.24345082197215,
      "latitude_deg": 2.1471630464730645e-06,
      "longitude_deg": 95.74341847461304,
      "height_km": 483.12633476236,
      "semi_major_axis_km": 6861.185610953417,
      "eccentricity": 0.00011735,
      "inclination_deg": 43.0017,
      "raan_deg": 107.868,
      "arg_perigee_deg": 248.0367,
      "mean_anomaly_deg": 112.036,
      "mean_motion_rev_day": 15.27580162
    },
    {
      "epoch": "2026-04-30T09:51:18.469152Z",
      "apogee_km": 483.7492078693158,
      "perigee_km": 482.6037801946213,
      "latitude_deg": -7.921601946074717e-06,
      "longitude_deg": 96.14556509319877,
      "height_km": 483.2615244842183,
      "semi_major_axis_km": 6861.313494031968,
      "eccentricity": 8.347e-05,
      "inclination_deg": 43.0022,
      "raan_deg": 102.3303,
      "arg_perigee_deg": 237.3797,
      "mean_anomaly_deg": 122.6974,
      "mean_motion_rev_day": 15.27537455
    },
    {
      "epoch": "2026-05-02T08:55:58.550880Z",
      "apogee_km": 484.249519673127,
      "perigee_km": 481.84536064529584,
      "latitude_deg": -7.83216647057199e-06,
      "longitude_deg": 96.97093897439369,
      "height_km": 482.25122149725723,
      "semi_major_axis_km": 6861.184440159212,
      "eccentricity": 0.0001752,
      "inclination_deg": 43.0041,
      "raan_deg": 91.2561,
      "arg_perigee_deg": 298.4995,
      "mean_anomaly_deg": 61.568,
      "mean_motion_rev_day": 15.27580553
    },
    {
      "epoch": "2026-05-03T08:28:19.571520Z",
      "apogee_km": 483.8386438077705,
      "perigee_km": 482.264824335949,
      "latitude_deg": 2.6518882443126637e-06,
      "longitude_deg": 97.37614223131412,
      "height_km": 482.7452533061757,
      "semi_major_axis_km": 6861.1887340718595,
      "eccentricity": 0.00011469,
      "inclination_deg": 43.0042,
      "raan_deg": 85.7156,
      "arg_perigee_deg": 276.087,
      "mean_anomaly_deg": 83.9851,
      "mean_motion_rev_day": 15.27579119
    },
    {
      "epoch": "2026-05-04T14:17:17.986848Z",
      "apogee_km": 483.83983609676125,
      "perigee_km": 482.2631349827834,
      "latitude_deg": -3.965992892529844e-06,
      "longitude_deg": 1.8916249922098776,
      "height_km": 482.80369388282054,
      "semi_major_axis_km": 6861.188485539772,
      "eccentricity": 0.0001149,
      "inclination_deg": 43.0043,
      "raan_deg": 78.699,
      "arg_perigee_deg": 271.8001,
      "mean_anomaly_deg": 88.2719,
      "mean_motion_rev_day": 15.27579202
    },
    {
      "epoch": "2026-05-05T20:06:16.034976Z",
      "apogee_km": 483.68222297733064,
      "perigee_km": 482.39918274689535,
      "latitude_deg": 3.313890698044455e-05,
      "longitude_deg": -93.59061204007459,
      "height_km": 482.8080051900952,
      "semi_major_axis_km": 6861.177702862113,
      "eccentricity": 9.35e-05,
      "inclination_deg": 43.0034,
      "raan_deg": 71.6831,
      "arg_perigee_deg": 270.8374,
      "mean_anomaly_deg": 89.2371,
      "mean_motion_rev_day": 15.27582803
    }
  ]
}